ONEWEB-0289             
1 49079U 21075E   23308.76703754  .00000140  00000+0  32768-3 0  9992
2 49079  87.9258 195.7819 0001714  70.7553 289.3764 13.17649206108388
ONEWEB-0290             
1 49080U 21075F   23308.75015769  .00000120  00000+0  27660-3 0  9998
2 49080  87.9233 195.7626 0001331  81.9579 278.1703 13.17649638107798
ONEWEB-0291             
1 49081U 21075G   23308.73327821  .00000133  00000+0  30955-3 0  9997
2 49081  87.9242 195.7900 0001492  85.8484 274.2818 13.17648677107785
ONEWEB-0293             
1 49082U 21075H   23308.75859161  .00000283  00000+0  69622-3 0  9996
2 49082  87.9259 195.7816 0001467  81.2240 278.9057 13.17647784107810
ONEWEB-0294             
1 49083U 21075J   23308.69423863 -.00000536  00000+0 -15259-2 0  9995
2 49083  87.9048 180.6871 0000985 110.2789 249.8446 13.12444789109249
ONEWEB-0295             
1 49084U 21075K   23308.76070270  .00000105  00000+0  23701-3 0  9996
2 49084  87.9264 195.7531 0001655  92.5292 267.6029 13.17649397107774
ONEWEB-0296             
1 49085U 21075L   23308.90704209 -.00000494  00000+0 -14097-2 0  9999
2 49085  87.9042 180.6428 0001573 110.2985 249.8313 13.12445976109270
ONEWEB-0297             
1 49086U 21075M   23308.93672635  .00000191  00000+0  49432-3 0  9994
2 49086  87.9051 180.6260 0001859  74.3986 285.7348 13.12440900109889
